[{"OBJECT_NAME":"O3B MPOWER F9","OBJECT_ID":"2025-153A","EPOCH":"2026-04-04T00:23:47.371200","MEAN_MOTION":5.00116246,"ECCENTRICITY":0.0005159,"INCLINATION":0.051,"RA_OF_ASC_NODE":14.9199,"ARG_OF_PERICENTER":24.4528,"MEAN_ANOMALY":320.6631,"EPHEMERIS_TYPE":0,"CLASSIFICATION_TYPE":"U","NORAD_CAT_ID":64866,"ELEMENT_SET_NO":999,"REV_AT_EPOCH":1585,"BSTAR":0,"MEAN_MOTION_DOT":-2.6e-7,"MEAN_MOTION_DDOT":0},{"OBJECT_NAME":"O3B MPOWER F10","OBJECT_ID":"2025-153B","EPOCH":"2026-04-04T04:22:27.364224","MEAN_MOTION":5.00115051,"ECCENTRICITY":0.00036145,"INCLINATION":0.0516,"RA_OF_ASC_NODE":9.6909,"ARG_OF_PERICENTER":256.6776,"MEAN_ANOMALY":93.5886,"EPHEMERIS_TYPE":0,"CLASSIFICATION_TYPE":"U","NORAD_CAT_ID":64867,"ELEMENT_SET_NO":999,"REV_AT_EPOCH":1832,"BSTAR":0,"MEAN_MOTION_DOT":-2.6e-7,"MEAN_MOTION_DDOT":0}]
